{
  "links" : {
    "next" : "https://api.nasa.gov/neo/rest/v1/feed?start_date=2014-06-09&end_date=2014-06-09&detailed=true&api_key=t0TVs3DtDT2H8Oy2Zy8m2eVrNsAVKAexjcZXUckd",
    "prev" : "https://api.nasa.gov/neo/rest/v1/feed?start_date=2014-06-07&end_date=2014-06-07&detailed=true&api_key=t0TVs3DtDT2H8Oy2Zy8m2eVrNsAVKAexjcZXUckd",
    "self" : "https://api.nasa.gov/neo/rest/v1/feed?start_date=2014-06-08&end_date=2014-06-08&detailed=true&api_key=t0TVs3DtDT2H8Oy2Zy8m2eVrNsAVKAexjcZXUckd"
  },
  "element_count" : 10,
  "near_earth_objects" : {
    "2014-06-08" : [ {
      "links" : {
        "self" : "https://api.nasa.gov/neo/rest/v1/neo/2376848?api_key=t0TVs3DtDT2H8Oy2Zy8m2eVrNsAVKAexjcZXUckd"
      },
      "neo_reference_id" : "2376848",
      "name" : "376848 (2001 RY47)",
      "nasa_jpl_url" : "http://ssd.jpl.nasa.gov/sbdb.cgi?sstr=2376848",
      "absolute_magnitude_h" : 19.4,
      "estimated_diameter" : {
        "kilometers" : {
          "estimated_diameter_min" : 0.3503926411,
          "estimated_diameter_max" : 0.7835017643
        },
        "meters" : {
          "estimated_diameter_min" : 350.3926411083,
          "estimated_diameter_max" : 783.5017643338
        },
        "miles" : {
          "estimated_diameter_min" : 0.2177238258,
          "estimated_diameter_max" : 0.4868452748
        },
        "feet" : {
          "estimated_diameter_min" : 1149.5821926537,
          "estimated_diameter_max" : 2570.543928497
        }
      },
      "is_potentially_hazardous_asteroid" : false,
      "close_approach_data" : [ {
        "close_approach_date" : "2014-06-08",
        "epoch_date_close_approach" : 1402210800000,
        "relative_velocity" : {
          "kilometers_per_second" : "17.2935660116",
          "kilometers_per_hour" : "62256.8376417546",
          "miles_per_hour" : "38683.9778113447"
        },
        "miss_distance" : {
          "astronomical" : "0.487905485",
          "lunar" : "189.7952270508",
          "kilometers" : "72989624",
          "miles" : "45353648"
        },
        "orbiting_body" : "Earth"
      } ],
      "orbital_data" : {
        "orbit_id" : "51",
        "orbit_determination_date" : "2017-04-06 09:22:24",
        "orbit_uncertainty" : "0",
        "minimum_orbit_intersection" : ".0820877",
        "jupiter_tisserand_invariant" : "6.471",
        "epoch_osculation" : "2458000.5",
        "eccentricity" : ".3929355368558013",
        "semi_major_axis" : ".9065883406947874",
        "inclination" : "17.60841650254292",
        "ascending_node_longitude" : "11.23223677745374",
        "orbital_period" : "315.292486157051",
        "perihelion_distance" : ".550357564336671",
        "perihelion_argument" : "214.0341513920518",
        "aphelion_distance" : "1.262819117052904",
        "perihelion_time" : "2458064.811320453254",
        "mean_anomaly" : "286.5695302626431",
        "mean_motion" : "1.141796953006611",
        "equinox" : "J2000"
      }
    }, {
      "links" : {
        "self" : "https://api.nasa.gov/neo/rest/v1/neo/3605257?api_key=t0TVs3DtDT2H8Oy2Zy8m2eVrNsAVKAexjcZXUckd"
      },
      "neo_reference_id" : "3605257",
      "name" : "(2012 KT42)",
      "nasa_jpl_url" : "http://ssd.jpl.nasa.gov/sbdb.cgi?sstr=3605257",
      "absolute_magnitude_h" : 29.0,
      "estimated_diameter" : {
        "kilometers" : {
          "estimated_diameter_min" : 0.0042126461,
          "estimated_diameter_max" : 0.0094197631
        },
        "meters" : {
          "estimated_diameter_min" : 4.2126461056,
          "estimated_diameter_max" : 9.4197630572
        },
        "miles" : {
          "estimated_diameter_min" : 0.0026176161,
          "estimated_diameter_max" : 0.0058531676
        },
        "feet" : {
          "estimated_diameter_min" : 13.821017849,
          "estimated_diameter_max" : 30.9047354285
        }
      },
      "is_potentially_hazardous_asteroid" : false,
      "close_approach_data" : [ {
        "close_approach_date" : "2014-06-08",
        "epoch_date_close_approach" : 1402210800000,
        "relative_velocity" : {
          "kilometers_per_second" : "12.7072897844",
          "kilometers_per_hour" : "45746.243223993",
          "miles_per_hour" : "28424.9365188194"
        },
        "miss_distance" : {
          "astronomical" : "0.1112454817",
          "lunar" : "43.2744941711",
          "kilometers" : "16642088",
          "miles" : "10340914"
        },
        "orbiting_body" : "Earth"
      } ],
      "orbital_data" : {
        "orbit_id" : "18",
        "orbit_determination_date" : "2017-04-06 08:49:40",
        "orbit_uncertainty" : "6",
        "minimum_orbit_intersection" : ".000894305",
        "jupiter_tisserand_invariant" : "4.179",
        "epoch_osculation" : "2458000.5",
        "eccentricity" : ".5546550362164471",
        "semi_major_axis" : "1.597547759397735",
        "inclination" : "2.193392539139397",
        "ascending_node_longitude" : "69.50644838437051",
        "orbital_period" : "737.5291713315165",
        "perihelion_distance" : ".7114598490514802",
        "perihelion_argument" : "259.1277562332743",
        "aphelion_distance" : "2.483635669743989",
        "perihelion_time" : "2458340.135507970365",
        "mean_anomaly" : "194.2183772221642",
        "mean_motion" : ".4881162860989825",
        "equinox" : "J2000"
      }
    }, {
      "links" : {
        "self" : "https://api.nasa.gov/neo/rest/v1/neo/3654067?api_key=t0TVs3DtDT2H8Oy2Zy8m2eVrNsAVKAexjcZXUckd"
      },
      "neo_reference_id" : "3654067",
      "name" : "(2013 WY67)",
      "nasa_jpl_url" : "http://ssd.jpl.nasa.gov/sbdb.cgi?sstr=3654067",
      "absolute_magnitude_h" : 19.3,
      "estimated_diameter" : {
        "kilometers" : {
          "estimated_diameter_min" : 0.3669061375,
          "estimated_diameter_max" : 0.8204270649
        },
        "meters" : {
          "estimated_diameter_min" : 366.9061375314,
          "estimated_diameter_max" : 820.4270648822
        },
        "miles" : {
          "estimated_diameter_min" : 0.2279848336,
          "estimated_diameter_max" : 0.5097895857
        },
        "feet" : {
          "estimated_diameter_min" : 1203.7603322587,
          "estimated_diameter_max" : 2691.6899315481
        }
      },
      "is_potentially_hazardous_asteroid" : false,
      "close_approach_data" : [ {
        "close_approach_date" : "2014-06-08",
        "epoch_date_close_approach" : 1402210800000,
        "relative_velocity" : {
          "kilometers_per_second" : "14.4066635971",
          "kilometers_per_hour" : "51863.9889495478",
          "miles_per_hour" : "32226.2658003454"
        },
        "miss_distance" : {
          "astronomical" : "0.1358070185",
          "lunar" : "52.8289299011",
          "kilometers" : "20316442",
          "miles" : "12624052"
        },
        "orbiting_body" : "Earth"
      } ],
      "orbital_data" : {
        "orbit_id" : "18",
        "orbit_determination_date" : "2016-11-06 05:17:24",
        "orbit_uncertainty" : "0",
        "minimum_orbit_intersection" : ".133154",
        "jupiter_tisserand_invariant" : "4.762",
        "epoch_osculation" : "2457600.5",
        "eccentricity" : ".3727803953125012",
        "semi_major_axis" : "1.342834639464732",
        "inclination" : "19.82107328959423",
        "ascending_node_longitude" : "64.00500602434789",
        "orbital_period" : "568.3714182528106",
        "perihelion_distance" : ".842252211725749",
        "perihelion_argument" : "151.938517324002",
        "aphelion_distance" : "1.843417067203715",
        "perihelion_time" : "2457356.648451287097",
        "mean_anomaly" : "154.4528009633265",
        "mean_motion" : ".6333886406650249",
        "equinox" : "J2000"
      }
    } ]
  }
}